OUTPOST MISSION 1       
1 56226U 23084BK  26068.97193801  .00102103  00000+0  83979-3 0  9993
2 56226  97.5968 222.1792 0004729 254.2575 105.8165 15.70083334153328
STARLINK-11083 [DTC]    
1 59424U 24065D   26068.44538879  .00000330  00000+0  75829-5 0  9992
2 59424  53.1581  95.1677 0001014  92.0634 268.0500 15.69711408111437
